O3B MPOWER F1           
1 54755U 22174A   23356.39583149 -.00000016  00000+0  00000+0 0  9999
2 54755   0.0562  15.7647 0005971 268.4116 357.6517  5.00118348 19937
